[{"OBJECT_NAME":"STARLINK-31918","OBJECT_ID":"2024-111X","EPOCH":"2026-03-09T08:15:29.680128","MEAN_MOTION":15.30187059,"ECCENTRICITY":0.00013962,"INCLINATION":53.1608,"RA_OF_ASC_NODE":77.0086,"ARG_OF_PERICENTER":95.6385,"MEAN_ANOMALY":264.4775,"EPHEMERIS_TYPE":0,"CLASSIFICATION_TYPE":"U","NORAD_CAT_ID":60037,"ELEMENT_SET_NO":999,"REV_AT_EPOCH":9891,"BSTAR":-1.4832514e-5,"MEAN_MOTION_DOT":-7.98e-6,"MEAN_MOTION_DDOT":0},{"OBJECT_NAME":"CZ-6A DEB","OBJECT_ID":"2024-140RA","EPOCH":"2026-03-09T01:51:18.259488","MEAN_MOTION":15.31763252,"ECCENTRICITY":0.00411794,"INCLINATION":89.1856,"RA_OF_ASC_NODE":296.0787,"ARG_OF_PERICENTER":96.6516,"MEAN_ANOMALY":263.9425,"EPHEMERIS_TYPE":0,"CLASSIFICATION_TYPE":"U","NORAD_CAT_ID":61156,"ELEMENT_SET_NO":999,"REV_AT_EPOCH":8391,"BSTAR":0.0079173326,"MEAN_MOTION_DOT":0.00256788,"MEAN_MOTION_DDOT":0}]
